NORAD_CAT_ID,OBJECT_NAME,OBJECT_TYPE,EPOCH,MEAN_MOTION,ECCENTRICITY,INCLINATION,RA_OF_ASC_NODE,ARG_OF_PERICENTER,MEAN_ANOMALY,BSTAR,MEAN_MOTION_DOT,MEAN_MOTION_DDOT,TLE_LINE0,TLE_LINE1,TLE_LINE2,SEMIMAJOR_AXIS,PERIOD,APOGEE,PERIGEE,DECAYED
56491.0,STARLINK-5842,PAYLOAD,2024-03-14 06:47:58,14.98327784,0.0002958,69.9997,133.4663,266.9722,93.1098,5.1752e-05,5.25e-06,0.0,0 STARLINK-5842,1 56491U 23064AV  24074.28331648  .00000525  00000-0  51752-4 0  9998,2 56491  69.9997 133.4663 0002958 266.9722  93.1098 14.98327784 47576,6950.2,96.107,574.121,570.009,0.0
56491.0,STARLINK-5842,PAYLOAD,2024-03-14 11:36:22,14.98328939,0.0002803,69.9993,132.9599,258.8208,101.2636,5.5064e-05,5.64e-06,0.0,0 STARLINK-5842,1 56491U 23064AV  24074.48359525  .00000564  00000-0  55064-4 0  9997,2 56491  69.9993 132.9599 0002803 258.8208 101.2636 14.98328939 47608,6950.196,96.107,574.009,570.113,0.0
56491.0,STARLINK-5842,PAYLOAD,2024-03-15 05:13:51,14.98324775,0.000312,69.9994,131.1091,267.0925,92.9877,6.3741e-05,6.68e-06,0.0,0 STARLINK-5842,1 56491U 23064AV  24075.21795814  .00000668  00000-0  63741-4 0  9990,2 56491  69.9994 131.1091 0003120 267.0925  92.9877 14.98324775 48077,6950.209,96.107,574.243,569.906,0.0
56491.0,STARLINK-5842,PAYLOAD,2024-03-15 13:14:31,14.98330076,0.0002922,69.9994,130.2675,264.9294,95.1532,-2.13e-05,-3.47e-06,0.0,0 STARLINK-5842,1 56491U 23064AV  24075.55175765 -.00000347  00000-0 -21300-4 0  9995,2 56491  69.9994 130.2675 0002922 264.9294  95.1532 14.98330076 47768,6950.193,96.107,574.089,570.027,0.0
56491.0,STARLINK-5842,PAYLOAD,2024-03-16 05:15:52,14.98329489,0.0002979,69.9993,128.5841,267.2857,92.7961,6.4541e-06,-1.6e-07,0.0,0 STARLINK-5842,1 56491U 23064AV  24076.21935699 -.00000016  00000-0  64541-5 0  9996,2 56491  69.9993 128.5841 0002979 267.2857  92.7961 14.98329489 48222,6950.194,96.107,574.13,569.989,0.0
56491.0,STARLINK-5842,PAYLOAD,2024-03-16 13:16:32,14.9832913,0.000291,69.9994,127.743,266.3866,93.6961,9.3342e-06,1.8e-07,0.0,0 STARLINK-5842,1 56491U 23064AV  24076.55315731  .00000018  00000-0  93342-5 0  9994,2 56491  69.9994 127.7430 0002910 266.3866  93.6961 14.98329130 47911,6950.196,96.107,574.083,570.038,0.0
56491.0,STARLINK-5842,PAYLOAD,2024-03-17 05:17:53,14.98330141,0.0003013,69.9992,126.0605,266.3067,93.7747,1.9083e-05,1.35e-06,0.0,0 STARLINK-5842,1 56491U 23064AV  24077.22075601  .00000135  00000-0  19083-4 0  9997,2 56491  69.9992 126.0605 0003013 266.3067  93.7747 14.98330141 48371,6950.192,96.107,574.152,569.963,0.0
56491.0,STARLINK-5842,PAYLOAD,2024-03-17 13:18:33,14.98331481,0.0002983,69.9991,125.2189,266.4977,93.5841,3.5728e-05,3.33e-06,0.0,0 STARLINK-5842,1 56491U 23064AV  24077.55455449  .00000333  00000-0  35728-4 0  9999,2 56491  69.9991 125.2189 0002983 266.4977  93.5841 14.98331481 48061,6950.188,96.107,574.127,569.98,0.0
56491.0,STARLINK-5842,PAYLOAD,2024-03-18 05:19:54,14.98332542,0.0002933,69.9991,123.5355,268.9631,91.1192,4.0866e-05,3.95e-06,0.0,0 STARLINK-5842,1 56491U 23064AV  24078.22215285  .00000395  00000-0  40866-4 0  9993,2 56491  69.9991 123.5355 0002933 268.9631  91.1192 14.98332542 48529,6950.185,96.107,574.089,570.012,0.0
56491.0,STARLINK-5842,PAYLOAD,2024-03-18 11:44:26,14.98333196,0.0002926,69.9991,122.8622,268.4519,91.6304,4.5967e-05,4.56e-06,0.0,0 STARLINK-5842,1 56491U 23064AV  24078.48919177  .00000456  00000-0  45967-4 0  9997,2 56491  69.9991 122.8622 0002926 268.4519  91.6304 14.98333196 48201,6950.183,96.107,574.082,570.014,0.0
56491.0,STARLINK-5842,PAYLOAD,2024-03-19 02:09:40,14.98313488,0.000207,70.0038,121.3511,212.1891,147.9142,-7.0291e-05,-9.31e-06,0.0,0 STARLINK-5842,1 56491U 23064AV  24079.09005103 -.00000931  00000-0 -70291-4 0  9998,2 56491  70.0038 121.3511 0002070 212.1891 147.9142 14.98313488 48652,6950.244,96.108,573.548,570.67,0.0
56491.0,STARLINK-5842,PAYLOAD,2024-03-19 11:46:29,14.98310176,0.0002395,69.9999,120.3374,256.3922,103.6971,-0.0001546,-1.936e-05,0.0,0 STARLINK-5842,1 56491U 23064AV  24079.49062104 -.00001936  00000-0 -15460-3 0  9998,2 56491  69.9999 120.3374 0002395 256.3922 103.6971 14.98310176 48713,6950.254,96.108,573.784,570.455,0.0
56491.0,STARLINK-5842,PAYLOAD,2024-03-20 02:11:41,14.98326268,0.000333,69.9982,118.8209,271.7664,88.3114,-7.3181e-05,-9.66e-06,0.0,0 STARLINK-5842,1 56491U 23064AV  24080.09145079 -.00000966  00000-0 -73181-4 0  9996,2 56491  69.9982 118.8209 0003330 271.7664  88.3114 14.98326268 48805,6950.204,96.107,574.384,569.755,0.0
56491.0,STARLINK-5842,PAYLOAD,2024-03-20 10:12:21,14.98332097,0.0003118,69.9988,117.9803,270.3575,89.7226,3.139e-05,2.82e-06,0.0,0 STARLINK-5842,1 56491U 23064AV  24080.42524507  .00000282  00000-0  31390-4 0  9995,2 56491  69.9988 117.9803 0003118 270.3575  89.7226 14.98332097 48852,6950.186,96.107,574.218,569.884,0.0
56491.0,STARLINK-5842,PAYLOAD,2024-03-20 11:48:29,14.98333141,0.0003157,69.9985,117.8121,271.1377,88.9421,4.8704e-05,4.88e-06,0.0,0 STARLINK-5842,1 56491U 23064AV  24080.49200529  .00000488  00000-0  48704-4 0  9992,2 56491  69.9985 117.8121 0003157 271.1377  88.9421 14.98333141 48504,6950.183,96.107,574.242,569.854,0.0
56491.0,STARLINK-5842,PAYLOAD,2024-03-21 11:50:27,14.98425593,0.0003636,69.9983,115.2867,267.4851,92.5892,-0.0011764,-0.00014137,0.0,0 STARLINK-5842,1 56491U 23064AV  24081.49337073 -.00014137  00000-0 -11764-2 0  9990,2 56491  69.9983 115.2867 0003636 267.4851  92.5892 14.98425593 49011,6949.897,96.101,574.289,569.235,0.0
56491.0,STARLINK-5842,PAYLOAD,2024-03-22 05:27:58,14.98341702,0.0002927,69.9992,113.4347,268.9216,91.1607,2.4181e-05,1.96e-06,0.0,0 STARLINK-5842,1 56491U 23064AV  24082.22775493  .00000196  00000-0  24181-4 0  9991,2 56491  69.9992 113.4347 0002927 268.9216  91.1607 14.98341702 49127,6950.157,96.106,574.056,569.987,0.0
56491.0,STARLINK-5842,PAYLOAD,2024-03-22 11:52:30,14.98340455,0.0002866,69.9993,112.762,269.4196,90.6635,9.2526e-05,1.011e-05,0.0,0 STARLINK-5842,1 56491U 23064AV  24082.49479174  .00001011  00000-0  92526-4 0  9992,2 56491  69.9993 112.7620 0002866 269.4196  90.6635 14.98340455 48802,6950.161,96.106,574.017,570.034,0.0
56491.0,STARLINK-5842,PAYLOAD,2024-03-23 05:29:59,14.98335693,0.0002841,69.9998,110.9116,270.4956,89.5878,-0.00018333,-2.28e-05,0.0,0 STARLINK-5842,1 56491U 23064AV  24083.22915836 -.00002280  00000-0 -18333-3 0  9998,2 56491  69.9998 110.9116 0002841 270.4956  89.5878 14.98335693 49272,6950.175,96.107,574.015,570.066,0.0
56491.0,STARLINK-5842,PAYLOAD,2024-03-23 11:54:31,14.98334079,0.0002765,69.9998,110.2373,268.8544,91.2298,-0.00018044,-2.245e-05,0.0,0 STARLINK-5842,1 56491U 23064AV  24083.49619823 -.00002245  00000-0 -18044-3 0  9994,2 56491  69.9998 110.2373 0002765 268.8544  91.2298 14.98334079 48956,6950.18,96.107,573.967,570.124,0.0
56491.0,STARLINK-5842,PAYLOAD,2024-03-24 05:31:59,14.98339012,0.0002867,69.9992,108.3867,261.2781,98.8053,-1.9893e-05,-3.3e-06,0.0,0 STARLINK-5842,1 56491U 23064AV  24084.23054697 -.00000330  00000-0 -19893-4 0  9996,2 56491  69.9992 108.3867 0002867 261.2781  98.8053 14.98339012 49426,6950.165,96.106,574.023,570.037,0.0
56491.0,STARLINK-5842,PAYLOAD,2024-03-24 11:56:31,14.98341211,0.0002742,69.9993,107.7119,268.2862,91.7983,3.0102e-05,2.66e-06,0.0,0 STARLINK-5842,1 56491U 23064AV  24084.49758342  .00000266  00000-0  30102-4 0  9994,2 56491  69.9993 107.7119 0002742 268.2862  91.7983 14.98341211 49102,6950.158,96.106,573.929,570.117,0.0
56491.0,STARLINK-5842,PAYLOAD,2024-03-24 18:21:03,14.98337183,0.0002883,69.9991,107.0361,276.9411,83.142,-8.7388e-05,-1.136e-05,0.0,0 STARLINK-5842,1 56491U 23064AV  24084.76462805 -.00001136  00000-0 -87388-4 0  9997,2 56491  69.9991 107.0361 0002883 276.9411  83.1420 14.98337183 49142,6950.171,96.107,574.039,570.032,0.0
56491.0,STARLINK-5842,PAYLOAD,2024-03-25 05:34:01,14.98321002,0.0002634,69.9995,105.8601,268.8375,91.2482,1.9528e-05,1.4e-06,0.0,0 STARLINK-5842,1 56491U 23064AV  24085.23195644  .00000140  00000-0  19528-4 0  9997,2 56491  69.9995 105.8601 0002634 268.8375  91.2482 14.98321002 49570,6950.221,96.108,573.916,570.255,0.0
56491.0,STARLINK-5842,PAYLOAD,2024-03-25 18:23:05,14.98320871,0.0002655,69.9997,104.5144,264.5879,95.4978,-8.0684e-06,-1.89e-06,0.0,0 STARLINK-5842,1 56491U 23064AV  24085.76604067 -.00000189  00000-0 -80684-5 0  9996,2 56491  69.9997 104.5144 0002655 264.5879  95.4978 14.98320871 49293,6950.221,96.108,573.931,570.241,0.0
56491.0,STARLINK-5842,PAYLOAD,2024-03-26 05:36:02,14.98328504,0.0002776,69.9991,103.3358,267.1294,92.9547,-7.2219e-05,-9.55e-06,0.0,0 STARLINK-5842,1 56491U 23064AV  24086.23335762 -.00000955  00000-0 -72219-4 0  9997,2 56491  69.9991 103.3358 0002776 267.1294  92.9547 14.98328504 49728,6950.198,96.107,573.992,570.133,0.0
56491.0,STARLINK-5842,PAYLOAD,2024-03-26 10:24:26,14.98325261,0.0002786,69.9991,102.8307,267.2749,92.8091,-0.00010286,-1.32e-05,0.0,0 STARLINK-5842,1 56491U 23064AV  24086.43364100 -.00001320  00000-0 -10286-3 0  9999,2 56491  69.9991 102.8307 0002786 267.2749  92.8091 14.98325261 49396,6950.208,96.107,574.009,570.136,0.0
56491.0,STARLINK-5842,PAYLOAD,2024-03-26 18:25:06,14.98329581,0.0002963,69.9987,101.9887,265.5975,94.4846,-8.6351e-05,-1.123e-05,0.0,0 STARLINK-5842,1 56491U 23064AV  24086.76743796 -.00001123  00000-0 -86351-4 0  9995,2 56491  69.9987 101.9887 0002963 265.5975  94.4846 14.98329581 49444,6950.194,96.107,574.119,570.0,0.0
56491.0,STARLINK-5842,PAYLOAD,2024-03-27 05:38:03,14.98324337,0.0002967,69.9986,100.81,268.3673,91.7146,8.5358e-05,9.25e-06,0.0,0 STARLINK-5842,1 56491U 23064AV  24087.23475854  .00000925  00000-0  85358-4 0  9998,2 56491  69.9986 100.8100 0002967 268.3673  91.7146 14.98324337 49873,6950.21,96.107,574.138,570.013,0.0
56491.0,STARLINK-5842,PAYLOAD,2024-03-27 10:26:27,14.98326395,0.0003015,69.9985,100.3049,268.027,92.0544,7.9782e-05,8.59e-06,0.0,0 STARLINK-5842,1 56491U 23064AV  24087.43503791  .00000859  00000-0  79782-4 0  9992,2 56491  69.9985 100.3049 0003015 268.0270  92.0544 14.98326395 49540,6950.204,96.107,574.165,569.974,0.0
